C/2015 C2 (SWAN),e,94.4996,49.5373,334.1305,455.3713,0.0001014,0.99843784,0.0000,03/04.5544/2015,2000,g 14.0,4.0
# From MPC 94282
C/2015 D2 (PANSTARRS),e,31.9259,162.8150,292.4415,12.93647,0.0211827,0.56504624,17.7557,01/17.0/2016,2000,g  8.0,4.0
# From MPC 97496
C/2015 D3 (PANSTARRS),h,04/29.8235/2016,128.5146,156.9803,2.7920,1.002645,8.148954,2000,5.5,4.0
# From MPC 94672
C/2015 D4 (Borisov),e,77.2996,305.7991,314.6767,78.69327,0.0014119,0.98905690,0.0000,10/28.2507/2014,2000,g 12.0,4.0
# From MPC 96866
P/2015 D5 (Kowalski),e,20.4032,74.3583,40.2291,9.091522,0.0359542,0.49664404,23.0712,01/17.0/2016,2000,g  9.0,4.0
# From MPC 96866
P/2015 D6 (Lemmon-PANSTARRS),e,20.2112,46.2472,125.7432,7.213187,0.0508760,0.36733359,9.4766,01/17.0/2016,2000,g 10.5,4.0
# From MPC 95211
P/2015 F1 (PANSTARRS),e,2.8042,40.4260,187.1644,3.522199,0.1491019,0.27838185,45.9163,01/17.0/2016,2000,g 12.5,4.0
# From MPC 95733
C/2015 F2 (Polonia),e,28.6934,262.5442,352.0372,38.37870,0.0041454,0.96846066,1.0910,01/17.0/2016,2000,g 16.5,4.0
# From MPC 96279
C/2015 F3 (SWAN),e,73.3969,31.6381,57.5608,225.9423,0.0002902,0.99630702,0.0000,03/09.3406/2015,2000,g 14.5,4.0
# From MPC 97496
C/2015 F4 (Jacques),e,48.7050,285.9562,36.3441,115.6364,0.0007926,0.98578400,0.0000,08/10.8560/2015,2000,g 11.0,4.0
# From MPC 95212
C/2015 F5 (SWAN-Xingming),e,149.2236,287.7671,13.3974,15.56479,0.0160505,0.97779531,0.0000,03/28.1204/2015,2000,g 15.5,4.0
# From MPC 97496
C/2015 GX (PANSTARRS),e,90.2561,235.5147,108.9607,16.18372,0.0151386,0.87816307,2.1699,01/17.0/2016,2000,g 14.0,4.0
# From MPC 97496
C/2015 G2 (MASTER),h,05/23.7779/2015,147.5606,110.0586,257.4514,1.000318,0.779794,2000,11.0,4.0
# From MPC 95733
C/2015 H1 (Bressi),e,140.6553,325.8061,21.7590,32.43579,0.0053354,0.94060648,1.5707,01/17.0/2016,2000,g 13.5,4.0
# From MPC 95212
C/2015 H2 (PANSTARRS),h,09/13.2600/2016,33.7053,350.6940,287.8979,1.002519,4.967465,2000,7.5,4.0
# From MPC 95212
C/2015 J1 (PANSTARRS),h,06/29.7666/2014,94.9875,219.9938,315.4524,1.002450,6.018932,2000,8.5,4.0
# From MPC 95212
C/2015 J2 (PANSTARRS),e,17.2803,56.7528,203.6847,250.3416,0.0002488,0.98274184,0.0000,09/08.8725/2015,2000,g 10.0,4.0
# From MPC 95733
P/2015 J3 (NEOWISE),e,8.1249,111.4186,129.2960,3.350564,0.1607042,0.55411674,51.2991,01/17.0/2016,2000,g 16.5,4.0
# From MPC 97496
C/2015 K1 (MASTER),e,29.3838,5.1773,280.1868,180.1826,0.0004075,0.98580809,0.0000,10/13.5689/2014,2000,g  9.0,4.0
# From MPC 95733
C/2015 K2 (PANSTARRS),e,29.1087,223.7097,15.7788,258.8857,0.0002366,0.99437884,0.0000,06/08.8067/2015,2000,g 20.0,4.0
# From MPC 95733
C/2015 K4 (PANSTARRS),h,05/01.7672/2015,80.2548,250.7683,357.5423,1.000157,2.007728,2000,15.0,4.0
# From MPC 95213
P/2015 K5 (PANSTARRS),e,39.9876,134.2673,106.0206,6.698940,0.0568454,0.55422663,12.7626,01/17.0/2016,2000,g 13.5,4.0
# From MPC 95733
C/2015 LC2 (PANSTARRS),h,05/01.8165/2015,93.7094,223.5666,341.8474,1.001702,5.890654,2000,8.0,4.0
# From MPC 95734
C/2015 M1 (PANSTARRS),e,57.3063,100.2888,163.9819,383.1734,0.0001314,0.99454163,0.0000,05/15.6816/2015,2000,g 16.5,4.0
# From MPC 96867
P/2015 M2 (PANSTARRS),e,3.9741,86.6154,224.5967,7.202017,0.0509944,0.17896648,7.2089,01/17.0/2016,2000,g  8.5,4.0
# From MPC 95734
C/2015 M3 (PANSTARRS),e,65.9510,143.0927,123.7559,133.9688,0.0006356,0.97348318,0.0000,08/26.2048/2015,2000,g 12.0,4.0
# From MPC 96867
C/2015 O1 (PANSTARRS),h,02/18.9725/2018,127.2271,299.8509,89.5316,1.000173,3.732499,2000,6.5,4.0
# From MPC 95734
C/2015 P3 (SWAN),e,58.1823,88.1451,132.8683,230.8846,0.0002809,0.99690247,0.0000,07/27.7952/2015,2000,g 15.5,4.0
# From MPC 97496
P/2015 P4 (PANSTARRS),e,8.7137,104.7444,280.8237,6.072001,0.0658728,0.58414273,359.8653,01/17.0/2016,2000,g 14.0,4.0
# From MPC 97497
P/2015 Q1 (Scotti),e,22.6492,203.3104,198.9688,3.429197,0.1552085,0.48917583,20.1520,01/17.0/2016,2000,g 14.0,4.0
# From MPC 96867
P/2015 Q2 (Pimentel),e,146.2018,228.2475,244.4062,7.408552,0.0488769,0.75445949,6.2889,01/17.0/2016,2000,g 15.5,4.0
# From MPC 97497
P/2015 R1 (PANSTARRS),e,22.6675,48.5146,300.5266,5.896290,0.0688392,0.63277285,14.1296,01/17.0/2016,2000,g 14.0,4.0
# From MPC 95734
P/2015 R2 (PANSTARRS),e,15.4591,168.6800,149.7619,4.496227,0.1033789,0.45116326,22.9561,01/17.0/2016,2000,g 14.5,4.0
# From MPC 97497
C/2015 R3 (PANSTARRS),e,83.6041,36.4160,271.9846,3566,0.0000046,0.99862552,0.0000,02/11.8344/2014,2000,g 10.0,4.0
# From MPC 97497
C/2015 T2 (PANSTARRS),p,05/21.4377/2017,124.5222,30.8434,6.932442,51.0583,2000,8.0,4.0
# From MPC 96280
P/2015 T3 (PANSTARRS),e,13.0937,120.5019,178.6330,4.326181,0.1095335,0.50818108,359.9227,12/21.0/2014,2000,g 14.0,4.0
# From MPC 97497
C/2015 T4 (PANSTARRS),e,87.9196,251.7889,270.1331,87.37673,0.0012067,0.97371796,0.0000,06/18.9395/2016,2000,g 11.0,4.0
# From MPC 96867
C/2015 T5 (Sheppard-Tholen),e,11.0454,311.1703,62.4167,28.07196,0.0066267,0.66749816,359.8683,01/17.0/2016,2000,g  7.5,4.0
# From MPC 97497
P/2015 TO19 (Lemmon-PANSTARRS),e,6.4998,321.6474,89.2845,4.562969,0.1011190,0.35885311,354.9459,01/17.0/2016,2000,g 14.0,4.0
# From MPC 97497
C/2015 TQ209 (LINEAR),e,11.3896,224.0846,281.4926,1549,0.0000162,0.99908763,0.0000,08/27.5342/2016,2000,g 10.5,4.0
# From MPC 97497
C/2015 V1 (PANSTARRS),e,139.2305,197.1933,179.6985,7062,0.0000017,0.99939591,0.0000,12/18.3122/2017,2000,g  6.5,4.0
# From MPC 97497
C/2015 V2 (Johnson),h,06/12.6168/2017,49.8653,69.8418,164.9189,1.000950,1.637669,2000,5.0,4.0
# From MPC 97497
C/2015 V3 (PANSTARRS),e,86.2439,2.3382,0.7612,1120,0.0000263,0.99621626,0.0000,11/24.4904/2015,2000,g  9.0,4.0
# From MPC 97497
C/2015 V4 (PANSTARRS),e,60.7483,179.9301,306.6060,18.50753,0.0123789,0.70463115,357.2583,01/17.0/2016,2000,g  8.5,4.0
# From MPC 97497
C/2015 W1 (Gibbs),h,05/17.2109/2016,87.3119,114.3147,48.1142,1.000772,2.231915,2000,13.0,4.0
# From MPC 97498
P/2015 W2 (Catalina),e,11.6088,294.2558,117.5816,7.319799,0.0497686,0.63416411,5.3861,01/17.0/2016,2000,g 13.0,4.0
# From MPC 97498
P/2015 X1 (PANSTARRS),e,12.1623,161.7916,219.0245,3.628830,0.1425785,0.42032421,14.0209,01/17.0/2016,2000,g 16.0,4.0
# From MPC 97498
C/2015 XY1 (Lemmon),p,03/30.3946/2018,149.0749,193.2690,8.140146,281.3383,2000,5.5,4.0
# From MPC 97498
C/2015 X2 (Catalina),e,72.4531,101.0917,41.9990,15.81085,0.0156773,0.87953121,0.4284,01/17.0/2016,2000,g 16.0,4.0
# From MPC 97498
P/2015 X3 (PANSTARRS),e,24.3781,77.3272,306.8876,5.023344,0.0875416,0.43813881,14.2004,01/17.0/2016,2000,g 15.0,4.0
# From MPEC 2016-AC4
C/2015 X4 (Elenin),e,29.5073,262.6363,176.3361,18.13595,0.0127613,0.81281150,0.9507,01/17.0/2016,2000,g 10.0,4.0
# From MPC 97498
C/2015 X5 (PANSTARRS),p,09/08.2856/2013,110.8445,250.4357,3.895663,127.8813,2000,7.5,4.0
# From MPC 97498
P/2015 X6 (PANSTARRS),e,4.5598,107.1257,326.1934,2.728473,0.2186879,0.15667590,359.8888,03/10.0/2016,2000,g 16.0,4.0
# From MPEC 2016-AC6
C/2015 X7 (ATLAS),p,07/29.9068/2016,57.5631,348.4071,3.685003,139.9055,2000,9.0,4.0
# From MPEC 2016-AC7
C/2015 X8 (NEOWISE),e,155.2878,191.0943,20.2604,18.82626,0.0120658,0.93684141,1.0376,01/17.0/2016,2000,g 16.0,4.0
# From MPEC 2016-AC3
C/2015 Y1 (LINEAR),p,05/15.5663/2016,71.3322,24.9558,2.510367,135.7533,2000,12.0,4.0
# From MPEC 2016-AC5
C/2015 YG1 (NEOWISE),e,57.3630,350.5180,102.8556,17.40810,0.0135699,0.88076729,359.9997,09/29.0/2015,2000,g 13.0,4.0
# From MPEC 2016-A62
C/2016 A1 (PANSTARRS),p,11/23.0754/2017,121.1302,10.4537,5.317378,128.2487,2000,6.0,4.0
# From MPEC 2016-AC8
P/2016 A2 (Christensen),e,22.7172,292.5683,144.0524,4.689635,0.0970500,0.31147728,359.9600,08/04.0/2015,2000,g 11.5,4.0
# From MPEC 2016-AC9
P/2016 A3 (PANSTARRS),e,8.5665,188.1007,334.2245,7.654550,0.0465398,0.36685753,359.9994,03/11.0/2017,2000,g 10.0,4.0
# From MPEC 2016-B09
C/2016 A5 (PANSTARRS),p,06/28.8486/2015,38.8556,319.7540,2.836940,135.6304,2000,13.5,4.0
# From AJ 98, 1083
1P/Halley,e,162.2801,58.5254,111.3950,17.85439,0.0130643,0.96783830,143.0589,01/17.0/2016,2000,g  5.5,3.2
# From NK 2573
2P/Encke,e,11.7812,334.5680,186.5498,2.215063,0.2989681,0.84835752,235.0141,01/17.0/2016,2000,g 11.5,6.0
# From MPC 92275
4P/Faye,e,9.0954,199.0818,205.0673,3.834911,0.1312415,0.57052770,78.3234,01/17.0/2016,2000,g  8.0,6.0
# From MPC 95735
6P/d'Arrest,e,19.4817,138.9324,178.1066,3.502923,0.1503343,0.61135870,48.1981,01/17.0/2016,2000,g  7.5,16.0
# From MPC 92984
7P/Pons-Winnecke,e,22.3354,93.4081,172.4993,3.418871,0.1559122,0.63762771,54.7980,01/17.0/2016,2000,g 10.0,6.0
# From MPC 75715
8P/Tuttle,e,55.0222,270.3189,207.5135,5.690340,0.0726101,0.82037141,211.1565,01/17.0/2016,2000,g  8.0,8.0
# From MPC 84319
9P/Tempel,e,10.4732,68.7626,179.1888,3.146520,0.1765868,0.50978713,324.9367,01/17.0/2016,2000,g  5.5,10.0
# From MPC 92984
10P/Tempel,e,12.0288,117.8049,195.5441,3.064292,0.1837422,0.53736838,11.7130,01/17.0/2016,2000,g  5.0,10.0
# From MPC 89730
11P/Tempel-Swift-LINEAR,e,13.5879,240.2354,164.2069,3.411476,0.1564194,0.54691314,79.4279,01/17.0/2016,2000,g 17.0,4.0
# From QJ 27, 604
12P/Pons-Brooks,e,74.3111,255.8863,199.1691,16.94844,0.0141257,0.95442095,317.3563,01/17.0/2016,2000,g  5.0,6.0
# From QJ 27, 604
13P/Olbers,e,44.6438,86.1422,64.5146,16.65943,0.0144949,0.93059723,315.2858,01/17.0/2016,2000,g  5.0,6.0
# From MPC 75715
14P/Wolf,e,27.9048,202.1228,159.0897,4.255614,0.1122692,0.35553979,283.0555,01/17.0/2016,2000,g  5.5,12.0
# From MPC 91617
15P/Finlay,e,6.8020,13.7321,347.6871,3.492622,0.1509999,0.72008161,58.2768,01/17.0/2016,2000,g 12.0,4.0
# From MPC 92276
16P/Brooks,e,4.2831,159.2744,219.9202,3.366661,0.1595530,0.56513372,93.5882,01/17.0/2016,2000,g  7.5,10.0
# From MPC 83523
17P/Holmes,e,19.0881,326.7689,24.6629,3.623126,0.1429154,0.43122101,94.3963,01/17.0/2016,2000,g 10.0,6.0
# From MPC 92984
19P/Borrelly,e,30.3667,75.3612,353.4741,3.602409,0.1441499,0.62555702,33.5972,01/17.0/2016,2000,g  4.5,10.0
# From MPC 94674
21P/Giacobini-Zinner,e,31.9334,195.3985,172.5236,3.514057,0.1496204,0.70704977,214.9425,01/17.0/2016,2000,g  9.0,6.0
# From MPC 94283
